      2.10          N: GNSS NAV DATA                        RINEX VERSION / TYPE
fic2rin                                 01/21/2021 00:17:30 PGM / RUN BY / DATE
                                                            END OF HEADER
16 21  1 20  2  0  0.0-2.676239237189e-04-5.570655048359e-12 0.000000000000e+00
    8.000000000000e+01 1.243750000000e+01 4.397683181156e-09-2.473835844827e+00
    3.539025783539e-07 1.207057747524e-02 5.902722477913e-06 5.153636661530e+03
    2.664000000000e+05 1.378357410431e-07 3.086557229258e+00-2.421438694000e-07
    9.756309672659e-01 2.736250000000e+02 6.429478554618e-01-7.975332204599e-09
   -2.178662178596e-11 1.000000000000e+00 2.141000000000e+03 0.000000000000e+00
    2.400000000000e+00 0.000000000000e+00-1.071020960808e-08 8.000000000000e+01
    2.592000000000e+05 4.000000000000e+00
10 21  1 20  2  0  0.0-4.301825538278e-05-8.412825991400e-12 0.000000000000e+00
    9.100000000000e+01-3.365625000000e+01 4.429827377234e-09-1.318807659210e+00
   -1.827254891396e-06 6.410258356482e-03 5.714595317841e-06 5.153668134689e+03
    2.664000000000e+05 1.434236764908e-07-1.474279159587e-01-1.061707735062e-07
    9.682567029782e-01 2.742500000000e+02-2.612719596521e+00-8.041763543159e-09
   -1.857220217820e-11 1.000000000000e+00 2.141000000000e+03 0.000000000000e+00
    2.400000000000e+00 0.000000000000e+00 2.328306436539e-09 9.100000000000e+01
    2.592000000000e+05 4.000000000000e+00
 8 21  1 20  2  0  0.0-7.239636033773e-06-1.364242052659e-12 0.000000000000e+00
    7.800000000000e+01-4.031250000000e+00 4.365896142813e-09 2.937516940583e+00
   -1.695007085800e-07 6.110917194746e-03 8.091330528259e-06 5.153783945084e+03
    2.664000000000e+05-1.247972249985e-07-2.256434400796e+00 1.490116119385e-08
    9.683808564468e-01 2.280312500000e+02-4.004716151931e-02-7.899614764949e-09
   -1.228622605635e-10 1.000000000000e+00 2.141000000000e+03 0.000000000000e+00
    3.400000000000e+00 0.000000000000e+00 5.122274160385e-09 7.800000000000e+01
    2.592000000000e+05 4.000000000000e+00
27 21  1 20  2  0  0.0-5.951756611466e-05-7.730704965070e-12 0.000000000000e+00
    6.900000000000e+01-3.218750000000e+00 4.094099107090e-09 2.900977271450e+00
   -2.440065145493e-07 8.884596987627e-03 8.078292012215e-06 5.153680419922e+03
    2.664000000000e+05-1.098960638046e-07-2.240234062078e+00-9.313225746155e-08
    9.768984014539e-01 2.327187500000e+02 5.665155543096e-01-7.748537043384e-09
   -1.317912039184e-10 1.000000000000e+00 2.141000000000e+03 0.000000000000e+00
    2.400000000000e+00 0.000000000000e+00 1.862645149231e-09 6.900000000000e+01
    2.592000000000e+05 4.000000000000e+00
19 21  1 20  2  0  0.0-4.963390529156e-05 5.002220859751e-12 0.000000000000e+00
    7.700000000000e+01-8.843750000000e+00 4.084813006001e-09-9.093342189973e-01
   -3.874301910400e-07 8.985537802801e-03 8.715316653252e-06 5.153617452621e+03
    2.664000000000e+05-1.210719347000e-07-2.135023097493e+00-1.303851604462e-08
    9.813408462481e-01 2.240000000000e+02 1.771651168177e+00-8.022119867778e-09
   -1.332198348551e-10 1.000000000000e+00 2.141000000000e+03 0.000000000000e+00
    3.400000000000e+00 0.000000000000e+00-1.536682248116e-08 7.700000000000e+01
    2.592000000000e+05 4.000000000000e+00
22 21  1 20  2  0  0.0-6.951177492738e-04 6.821210263297e-12 0.000000000000e+00
    9.800000000000e+01-3.206250000000e+01 5.295220567191e-09 1.881708596030e+00
   -1.730397343636e-06 6.884819827974e-03 4.904344677925e-06 5.153625139236e+03
    2.664000000000e+05 1.396983861923e-07-2.394115322227e-01 2.607703208923e-08
    9.336930060729e-01 2.672187500000e+02-1.050744092280e+00-8.448923360143e-09
   -6.750281176306e-11 1.000000000000e+00 2.141000000000e+03 0.000000000000e+00
    2.400000000000e+00 0.000000000000e+00-1.816079020500e-08 9.800000000000e+01
    2.592000000000e+05 4.000000000000e+00
12 21  1 20  2  0  0.0 1.057144254446e-05-5.229594535194e-12 0.000000000000e+00
    9.900000000000e+01 2.137500000000e+01 4.568761735836e-09-6.006906094721e-01
    1.221895217896e-06 8.237131289206e-03 5.846843123436e-06 5.153565357208e+03
    2.664000000000e+05-6.146728992462e-08 3.067763759989e+00 1.173466444016e-07
    9.754916945389e-01 2.803125000000e+02 1.172717103460e+00-8.249629344461e-09
   -5.428797559780e-11 1.000000000000e+00 2.141000000000e+03 0.000000000000e+00
    2.400000000000e+00 0.000000000000e+00-1.257285475731e-08 9.900000000000e+01
    2.592000000000e+05 4.000000000000e+00
 7 21  1 20  2  0  0.0 2.808542922139e-05 1.421085471520e-11 0.000000000000e+00
    9.600000000000e+01 5.234375000000e+01 4.829844039534e-09 6.822746805076e-02
    2.838671207428e-06 1.435147703160e-02 8.353963494301e-06 5.153611455917e+03
    2.664000000000e+05 2.048909664154e-08 1.958695183676e+00 2.924352884293e-07
    9.517729253455e-01 2.164375000000e+02-2.355850634224e+00-8.397492646418e-09
    1.928651764659e-10 1.000000000000e+00 2.141000000000e+03 0.000000000000e+00
    2.400000000000e+00 0.000000000000e+00-1.117587089539e-08 9.600000000000e+01
    2.592000000000e+05 4.000000000000e+00
13 21  1 20  2  0  0.0 8.779857307673e-05 4.206412995700e-12 0.000000000000e+00
    9.700000000000e+01-2.496875000000e+01 4.238390831705e-09 2.237934316821e+00
   -1.274049282074e-06 4.918933496810e-03 1.021474599838e-05 5.153683792114e+03
    2.664000000000e+05 4.097819328308e-08 1.032017138971e+00-1.210719347000e-07
    9.678698211258e-01 1.855625000000e+02 1.040188529765e+00-7.837469319199e-09
   -4.750197864808e-11 1.000000000000e+00 2.141000000000e+03 0.000000000000e+00
    2.400000000000e+00 0.000000000000e+00-1.164153218269e-08 9.700000000000e+01
    2.592000000000e+05 4.000000000000e+00
32 21  1 20  2  0  0.0 1.516938209534e-05 1.932676241267e-12 0.000000000000e+00
    8.800000000000e+01-3.812500000000e+01 4.406969282245e-09-2.636716977000e+00
   -1.935288310051e-06 4.458751878701e-03 9.372830390930e-06 5.153629390717e+03
    2.664000000000e+05-4.656612873077e-08 8.948592838982e-01-2.235174179077e-08
    9.570769337988e-01 1.968125000000e+02-2.456390334609e+00-7.868184884340e-09
    7.857470152314e-12 1.000000000000e+00 2.141000000000e+03 0.000000000000e+00
    2.400000000000e+00 0.000000000000e+00 4.656612873077e-10 8.800000000000e+01
    2.592000000000e+05 4.000000000000e+00
26 21  1 20  2  0  0.0 3.249803557992e-05 5.684341886081e-12 0.000000000000e+00
    8.400000000000e+01 1.871875000000e+01 5.133785271335e-09-1.544989432223e+00
    7.320195436478e-07 5.634191096760e-03 5.232170224190e-06 5.153740428925e+03
    2.664000000000e+05 6.146728992462e-08 2.956231169431e+00-5.215406417847e-08
    9.437458133841e-01 2.668750000000e+02 2.540243692946e-01-8.443565994130e-09
    2.500104139373e-11 1.000000000000e+00 2.141000000000e+03 0.000000000000e+00
    3.400000000000e+00 0.000000000000e+00 6.984919309616e-09 8.400000000000e+01
    2.592000000000e+05 4.000000000000e+00
21 21  1 20  2  0  0.0 8.831685408950e-05 3.296918293927e-12 0.000000000000e+00
    8.000000000000e+01 2.059375000000e+01 4.581262256533e-09 3.127508240083e+00
    1.184642314911e-06 2.420241362415e-02 6.737187504768e-06 5.153735754013e+03
    2.664000000000e+05 2.961605787277e-07-1.263529162261e+00 3.296881914139e-07
    9.556843133220e-01 2.409062500000e+02-1.208682195425e+00-7.834612057325e-09
    1.392915163365e-10 1.000000000000e+00 2.141000000000e+03 0.000000000000e+00
    2.400000000000e+00 0.000000000000e+00-1.024454832077e-08 8.000000000000e+01
    2.592000000000e+05 4.000000000000e+00
17 21  1 20  2  0  0.0 3.824224695563e-04 4.774847184308e-12 0.000000000000e+00
    9.300000000000e+01-9.406250000000e+00 3.960164956766e-09 2.800783761851e+00
   -3.799796104431e-07 1.359487941954e-02 8.359551429749e-06 5.153538572311e+03
    2.664000000000e+05 2.346932888031e-07-2.180331039699e+00-1.285225152969e-07
    9.829541186588e-01 2.244062500000e+02-1.586184722572e+00-7.644604142733e-09
   -2.532248335450e-10 1.000000000000e+00 2.141000000000e+03 0.000000000000e+00
    3.400000000000e+00 0.000000000000e+00-1.117587089539e-08 9.300000000000e+01
    2.592000000000e+05 4.000000000000e+00
18 21  1 20  2  0  0.0 3.424459137022e-04 2.614797267597e-12 0.000000000000e+00
    2.030000000000e+02 2.750000000000e+00 4.435541900981e-09 8.432208694538e-01
    1.247972249985e-07 1.188209396787e-03 7.070600986481e-06 5.153692350388e+03
    2.664000000000e+05-5.587935447693e-09-1.169555481480e+00-5.401670932770e-08
    9.664850111687e-01 2.425312500000e+02 3.028356010703e+00-8.092837099149e-09
    8.250343659930e-11 1.000000000000e+00 2.141000000000e+03 0.000000000000e+00
    2.400000000000e+00 0.000000000000e+00-8.381903171539e-09 2.030000000000e+02
    2.592000000000e+05 4.000000000000e+00
14 21  1 20  2  0  0.0 8.798763155937e-05 5.343281372916e-12 0.000000000000e+00
    1.080000000000e+02 1.493750000000e+01 4.807700260013e-09 4.382724806309e-01
    7.916241884232e-07 2.835580380633e-04 5.682930350304e-06 5.153737596512e+03
    2.664000000000e+05-3.352761268616e-08 3.042644156033e+00 1.490116119385e-08
    9.589972624739e-01 2.686562500000e+02 1.987594995744e+00-8.293202588033e-09
   -8.500354073867e-11 1.000000000000e+00 2.141000000000e+03 0.000000000000e+00
    2.400000000000e+00 0.000000000000e+00-2.328306436539e-09 8.760000000000e+02
    2.592000000000e+05 4.000000000000e+00
23 21  1 20  2  0  0.0 1.166868023574e-04 1.364242052659e-12 0.000000000000e+00
    2.270000000000e+02-3.071875000000e+01 4.619835291826e-09 4.779299851422e-01
   -1.763924956322e-06 1.077097258531e-03 5.841255187988e-06 5.153638757706e+03
    2.664000000000e+05 4.284083843231e-08-1.702243504132e-01 1.862645149231e-09
    9.632046265732e-01 2.709375000000e+02 2.361040447292e+00-8.192484106990e-09
   -6.178828801592e-11 1.000000000000e+00 2.141000000000e+03 0.000000000000e+00
    2.400000000000e+00 0.000000000000e+00-8.381903171539e-09 4.830000000000e+02
    2.592000000000e+05 4.000000000000e+00
